[{"OBJECT_NAME":"METEOSAT-11 (MSG-4)","OBJECT_ID":"2015-034A","EPOCH":"2026-03-07T06:22:38.729856","MEAN_MOTION":1.00267,"ECCENTRICITY":0.0001809,"INCLINATION":2.9449,"RA_OF_ASC_NODE":71.6638,"ARG_OF_PERICENTER":270.7549,"MEAN_ANOMALY":287.5565,"EPHEMERIS_TYPE":0,"CLASSIFICATION_TYPE":"U","NORAD_CAT_ID":40732,"ELEMENT_SET_NO":999,"REV_AT_EPOCH":619,"BSTAR":0,"MEAN_MOTION_DOT":6.0e-7,"MEAN_MOTION_DDOT":0},{"OBJECT_NAME":"ELEKTRO-L 2","OBJECT_ID":"2015-074A","EPOCH":"2026-03-07T07:00:15.232608","MEAN_MOTION":1.00271084,"ECCENTRICITY":0.000324,"INCLINATION":6.4383,"RA_OF_ASC_NODE":71.7777,"ARG_OF_PERICENTER":243.1619,"MEAN_ANOMALY":300.6093,"EPHEMERIS_TYPE":0,"CLASSIFICATION_TYPE":"U","NORAD_CAT_ID":41105,"ELEMENT_SET_NO":999,"REV_AT_EPOCH":3748,"BSTAR":0,"MEAN_MOTION_DOT":-1.18e-6,"MEAN_MOTION_DDOT":0},{"OBJECT_NAME":"INSAT-3DR","OBJECT_ID":"2016-054A","EPOCH":"2026-03-07T15:22:01.270272","MEAN_MOTION":1.00272801,"ECCENTRICITY":0.00129772,"INCLINATION":0.0555,"RA_OF_ASC_NODE":94.5013,"ARG_OF_PERICENTER":187.7604,"MEAN_ANOMALY":187.5724,"EPHEMERIS_TYPE":0,"CLASSIFICATION_TYPE":"U","NORAD_CAT_ID":41752,"ELEMENT_SET_NO":999,"REV_AT_EPOCH":3480,"BSTAR":0,"MEAN_MOTION_DOT":-7.8e-7,"MEAN_MOTION_DDOT":0},{"OBJECT_NAME":"HIMAWARI-9","OBJECT_ID":"2016-064A","EPOCH":"2026-03-07T10:45:38.812896","MEAN_MOTION":1.00271551,"ECCENTRICITY":0.0001287,"INCLINATION":0.0137,"RA_OF_ASC_NODE":162.5487,"ARG_OF_PERICENTER":219.0766,"MEAN_ANOMALY":85.7161,"EPHEMERIS_TYPE":0,"CLASSIFICATION_TYPE":"U","NORAD_CAT_ID":41836,"ELEMENT_SET_NO":999,"REV_AT_EPOCH":3419,"BSTAR":0,"MEAN_MOTION_DOT":-2.76e-6,"MEAN_MOTION_DDOT":0},{"OBJECT_NAME":"GOES 16","OBJECT_ID":"2016-071A","EPOCH":"2026-03-07T08:10:14.882592","MEAN_MOTION":1.00272251,"ECCENTRICITY":0.0002356,"INCLINATION":0.138,"RA_OF_ASC_NODE":89.0757,"ARG_OF_PERICENTER":223.6591,"MEAN_ANOMALY":230.1708,"EPHEMERIS_TYPE":0,"CLASSIFICATION_TYPE":"U","NORAD_CAT_ID":41866,"ELEMENT_SET_NO":999,"REV_AT_EPOCH":3408,"BSTAR":0,"MEAN_MOTION_DOT":-9.3e-7,"MEAN_MOTION_DDOT":0},{"OBJECT_NAME":"FENGYUN 4A","OBJECT_ID":"2016-077A","EPOCH":"2026-03-07T14:27:19.132128","MEAN_MOTION":1.00277909,"ECCENTRICITY":0.00072113,"INCLINATION":2.0641,"RA_OF_ASC_NODE":81.3803,"ARG_OF_PERICENTER":134.6605,"MEAN_ANOMALY":289.7389,"EPHEMERIS_TYPE":0,"CLASSIFICATION_TYPE":"U","NORAD_CAT_ID":41882,"ELEMENT_SET_NO":999,"REV_AT_EPOCH":3391,"BSTAR":0,"MEAN_MOTION_DOT":-3.58e-6,"MEAN_MOTION_DDOT":0},{"OBJECT_NAME":"CYGFM05","OBJECT_ID":"2016-078A","EPOCH":"2026-03-07T13:52:05.052864","MEAN_MOTION":15.52051369,"ECCENTRICITY":0.00071713,"INCLINATION":34.9572,"RA_OF_ASC_NODE":211.172,"ARG_OF_PERICENTER":267.5179,"MEAN_ANOMALY":92.4723,"EPHEMERIS_TYPE":0,"CLASSIFICATION_TYPE":"U","NORAD_CAT_ID":41884,"ELEMENT_SET_NO":999,"REV_AT_EPOCH":51293,"BSTAR":0.00051279643,"MEAN_MOTION_DOT":0.00032014,"MEAN_MOTION_DDOT":0},{"OBJECT_NAME":"CYGFM04","OBJECT_ID":"2016-078B","EPOCH":"2026-03-07T15:09:37.880352","MEAN_MOTION":15.55478322,"ECCENTRICITY":0.00060036,"INCLINATION":34.9328,"RA_OF_ASC_NODE":182.9639,"ARG_OF_PERICENTER":302.1592,"MEAN_ANOMALY":57.8549,"EPHEMERIS_TYPE":0,"CLASSIFICATION_TYPE":"U","NORAD_CAT_ID":41885,"ELEMENT_SET_NO":999,"REV_AT_EPOCH":51314,"BSTAR":0.00055441053,"MEAN_MOTION_DOT":0.00039262,"MEAN_MOTION_DDOT":0},{"OBJECT_NAME":"CYGFM02","OBJECT_ID":"2016-078C","EPOCH":"2026-03-07T14:23:56.031648","MEAN_MOTION":15.57759155,"ECCENTRICITY":0.00069857,"INCLINATION":34.9416,"RA_OF_ASC_NODE":180.1197,"ARG_OF_PERICENTER":303.8555,"MEAN_ANOMALY":56.1504,"EPHEMERIS_TYPE":0,"CLASSIFICATION_TYPE":"U","NORAD_CAT_ID":41886,"ELEMENT_SET_NO":999,"REV_AT_EPOCH":51328,"BSTAR":0.0005552702,"MEAN_MOTION_DOT":0.00042853,"MEAN_MOTION_DDOT":0},{"OBJECT_NAME":"CYGFM01","OBJECT_ID":"2016-078D","EPOCH":"2026-03-07T14:32:04.597728","MEAN_MOTION":15.52495086,"ECCENTRICITY":0.00068535,"INCLINATION":34.94,"RA_OF_ASC_NODE":212.7863,"ARG_OF_PERICENTER":259.7413,"MEAN_ANOMALY":100.2537,"EPHEMERIS_TYPE":0,"CLASSIFICATION_TYPE":"U","NORAD_CAT_ID":41887,"ELEMENT_SET_NO":999,"REV_AT_EPOCH":51288,"BSTAR":0.00052587259,"MEAN_MOTION_DOT":0.00033366,"MEAN_MOTION_DDOT":0},{"OBJECT_NAME":"CYGFM08","OBJECT_ID":"2016-078E","EPOCH":"2026-03-07T14:06:17.225568","MEAN_MOTION":15.53986412,"ECCENTRICITY":0.00081866,"INCLINATION":34.9437,"RA_OF_ASC_NODE":194.7888,"ARG_OF_PERICENTER":284.7425,"MEAN_ANOMALY":75.2391,"EPHEMERIS_TYPE":0,"CLASSIFICATION_TYPE":"U","NORAD_CAT_ID":41888,"ELEMENT_SET_NO":999,"REV_AT_EPOCH":51312,"BSTAR":0.00055198264,"MEAN_MOTION_DOT":0.00037013,"MEAN_MOTION_DDOT":0},{"OBJECT_NAME":"CYGFM07","OBJECT_ID":"2016-078G","EPOCH":"2026-03-07T14:51:57.591648","MEAN_MOTION":15.54683564,"ECCENTRICITY":0.00065275,"INCLINATION":34.9454,"RA_OF_ASC_NODE":183.0396,"ARG_OF_PERICENTER":304.9747,"MEAN_ANOMALY":55.0363,"EPHEMERIS_TYPE":0,"CLASSIFICATION_TYPE":"U","NORAD_CAT_ID":41890,"ELEMENT_SET_NO":999,"REV_AT_EPOCH":51315,"BSTAR":0.00053760701,"MEAN_MOTION_DOT":0.00036963,"MEAN_MOTION_DDOT":0},{"OBJECT_NAME":"CYGFM03","OBJECT_ID":"2016-078H","EPOCH":"2026-03-07T14:10:18.266880","MEAN_MOTION":15.54699346,"ECCENTRICITY":0.00058696,"INCLINATION":34.9407,"RA_OF_ASC_NODE":185.207,"ARG_OF_PERICENTER":289.8081,"MEAN_ANOMALY":70.2009,"EPHEMERIS_TYPE":0,"CLASSIFICATION_TYPE":"U","NORAD_CAT_ID":41891,"ELEMENT_SET_NO":999,"REV_AT_EPOCH":51312,"BSTAR":0.00054234426,"MEAN_MOTION_DOT":0.00037306,"MEAN_MOTION_DDOT":0},{"OBJECT_NAME":"FENGYUN 3D","OBJECT_ID":"2017-072A","EPOCH":"2026-03-07T14:12:58.861152","MEAN_MOTION":14.19713739,"ECCENTRICITY":0.0001683,"INCLINATION":99.0032,"RA_OF_ASC_NODE":39.2346,"ARG_OF_PERICENTER":17.9903,"MEAN_ANOMALY":342.1332,"EPHEMERIS_TYPE":0,"CLASSIFICATION_TYPE":"U","NORAD_CAT_ID":43010,"ELEMENT_SET_NO":999,"REV_AT_EPOCH":43057,"BSTAR":-2.8973565e-5,"MEAN_MOTION_DOT":-1.07e-6,"MEAN_MOTION_DDOT":0},{"OBJECT_NAME":"NOAA 20 (JPSS-1)","OBJECT_ID":"2017-073A","EPOCH":"2026-03-07T13:44:55.870368","MEAN_MOTION":14.19535495,"ECCENTRICITY":0.00011298,"INCLINATION":98.769,"RA_OF_ASC_NODE":6.9811,"ARG_OF_PERICENTER":140.6553,"MEAN_ANOMALY":219.4706,"EPHEMERIS_TYPE":0,"CLASSIFICATION_TYPE":"U","NORAD_CAT_ID":43013,"ELEMENT_SET_NO":999,"REV_AT_EPOCH":43005,"BSTAR":8.9000721e-5,"MEAN_MOTION_DOT":1.44e-6,"MEAN_MOTION_DDOT":0},{"OBJECT_NAME":"GOES 17","OBJECT_ID":"2018-022A","EPOCH":"2026-03-07T08:26:38.710752","MEAN_MOTION":1.00270088,"ECCENTRICITY":0.00020829,"INCLINATION":0.6754,"RA_OF_ASC_NODE":87.4909,"ARG_OF_PERICENTER":226.7834,"MEAN_ANOMALY":247.9185,"EPHEMERIS_TYPE":0,"CLASSIFICATION_TYPE":"U","NORAD_CAT_ID":43226,"ELEMENT_SET_NO":999,"REV_AT_EPOCH":2940,"BSTAR":0,"MEAN_MOTION_DOT":-1.84e-6,"MEAN_MOTION_DDOT":0},{"OBJECT_NAME":"FENGYUN 2H","OBJECT_ID":"2018-050A","EPOCH":"2026-03-07T15:27:35.721216","MEAN_MOTION":1.0027281,"ECCENTRICITY":0.00016114,"INCLINATION":2.7689,"RA_OF_ASC_NODE":80.3215,"ARG_OF_PERICENTER":174.9195,"MEAN_ANOMALY":221.0838,"EPHEMERIS_TYPE":0,"CLASSIFICATION_TYPE":"U","NORAD_CAT_ID":43491,"ELEMENT_SET_NO":999,"REV_AT_EPOCH":2842,"BSTAR":0,"MEAN_MOTION_DOT":-1.28e-6,"MEAN_MOTION_DDOT":0}]
