METEOSAT-11 (MSG-4)     
1 40732U 15034A   26066.26572604  .00000060  00000+0  00000+0 0  9995
2 40732   2.9449  71.6638 0001809 270.7549 287.5565  1.00267000  6199
ELEKTRO-L 2             
1 41105U 15074A   26066.29184297 -.00000118  00000+0  00000+0 0  9999
2 41105   6.4383  71.7777 0003240 243.1619 300.6093  1.00271084 37484
INSAT-3DR               
1 41752U 16054A   26066.64029248 -.00000078  00000+0  00000+0 0  9994
2 41752   0.0555  94.5013 0012977 187.7604 187.5724  1.00272801 34807
HIMAWARI-9              
1 41836U 16064A   26066.44836589 -.00000276  00000+0  00000+0 0  9990
2 41836   0.0137 162.5487 0001287 219.0766  85.7161  1.00271551 34194
GOES 16                 
1 41866U 16071A   26066.34045003 -.00000093  00000+0  00000+0 0  9990
2 41866   0.1380  89.0757 0002356 223.6591 230.1708  1.00272251 34085
FENGYUN 4A              
1 41882U 16077A   26066.60230477 -.00000358  00000+0  00000+0 0  9998
2 41882   2.0641  81.3803 0007211 134.6605 289.7389  1.00277909 33914
CYGFM05                 
1 41884U 16078A   26066.57783626  .00032014  00000+0  51280-3 0  9999
2 41884  34.9572 211.1720 0007171 267.5179  92.4723 15.52051369512938
CYGFM04                 
1 41885U 16078B   26066.63168843  .00039262  00000+0  55441-3 0  9990
2 41885  34.9328 182.9639 0006003 302.1592  57.8549 15.55478322513140
CYGFM02                 
1 41886U 16078C   26066.59995407  .00042853  00000+0  55527-3 0  9995
2 41886  34.9416 180.1197 0006985 303.8555  56.1504 15.57759155513280
CYGFM01                 
1 41887U 16078D   26066.60560877  .00033366  00000+0  52587-3 0  9999
2 41887  34.9400 212.7863 0006853 259.7413 100.2537 15.52495086512889
CYGFM08                 
1 41888U 16078E   26066.58769937  .00037013  00000+0  55198-3 0  9999
2 41888  34.9437 194.7888 0008186 284.7425  75.2391 15.53986412513124
CYGFM07                 
1 41890U 16078G   26066.61941657  .00036963  00000+0  53761-3 0  9994
2 41890  34.9454 183.0396 0006527 304.9747  55.0363 15.54683564513151
CYGFM03                 
1 41891U 16078H   26066.59048920  .00037306  00000+0  54234-3 0  9991
2 41891  34.9407 185.2070 0005869 289.8081  70.2009 15.54699346513121
FENGYUN 3D              
1 43010U 17072A   26066.59234793 -.00000107  00000+0 -28974-4 0  9990
2 43010  99.0032  39.2346 0001683  17.9903 342.1332 14.19713739430579
NOAA 20 (JPSS-1)        
1 43013U 17073A   26066.57286887  .00000144  00000+0  89001-4 0  9990
2 43013  98.7690   6.9811 0001129 140.6553 219.4706 14.19535495430051
GOES 17                 
1 43226U 18022A   26066.35183693 -.00000184  00000+0  00000+0 0  9990
2 43226   0.6754  87.4909 0002082 226.7834 247.9185  1.00270088 29409
FENGYUN 2H              
1 43491U 18050A   26066.64416344 -.00000128  00000+0  00000+0 0  9997
2 43491   2.7689  80.3215 0001611 174.9195 221.0838  1.00272810 28420
